[{"OBJECT_NAME":"PRAETORIAN SDA_619","OBJECT_ID":"2025-203T","EPOCH":"2026-03-09T14:29:57.164640","MEAN_MOTION":13.83929489,"ECCENTRICITY":0.0009419,"INCLINATION":81.3013,"RA_OF_ASC_NODE":102.9558,"ARG_OF_PERICENTER":101.1337,"MEAN_ANOMALY":259.0878,"EPHEMERIS_TYPE":0,"CLASSIFICATION_TYPE":"U","NORAD_CAT_ID":65582,"ELEMENT_SET_NO":999,"REV_AT_EPOCH":2555,"BSTAR":0.00020555,"MEAN_MOTION_DOT":2.4e-6,"MEAN_MOTION_DDOT":0},{"OBJECT_NAME":"SL-8 R\/B","OBJECT_ID":"1989-028B","EPOCH":"2026-03-09T21:15:53.891424","MEAN_MOTION":13.77492093,"ECCENTRICITY":0.00354433,"INCLINATION":82.9575,"RA_OF_ASC_NODE":221.6356,"ARG_OF_PERICENTER":316.7711,"MEAN_ANOMALY":43.0666,"EPHEMERIS_TYPE":0,"CLASSIFICATION_TYPE":"U","NORAD_CAT_ID":19922,"ELEMENT_SET_NO":999,"REV_AT_EPOCH":85576,"BSTAR":0.00015265646,"MEAN_MOTION_DOT":1.67e-6,"MEAN_MOTION_DDOT":0}]
